start=new Date('2022-01-19T00:00:00.000Z').valueOf();
sats=[{"ARG_OF_PERICENTER":"66.0502","PERIOD":"95.592","APOAPSIS":"548.388","INCLINATION":"53.0559","MEAN_MOTION_DOT":"0.00012518","REV_AT_EPOCH":"5574","EPOCH":"2022-01-18T21:02:24.592128","DECAY_DATE":null,"MEAN_ANOMALY":"294.0662","EPHEMERIS_TYPE":"0","MEAN_MOTION":"15.06394983","OBJECT_NAME":"STARLINK-2102","OBJECT_TYPE":"PAYLOAD","RCS_SIZE":"LARGE","MEAN_MOTION_DDOT":"0.0000000000000","CENTER_NAME":"EARTH","TIME_SYSTEM":"UTC","REF_FRAME":"TEME","TLE_LINE1":"1 47382U 21005AK  22018.87667352  .00012518  00000-0  85790-3 0  9998","SITE":"AFETR","GP_ID":"194154509","MEAN_ELEMENT_THEORY":"SGP4","COUNTRY_CODE":"US","SEMIMAJOR_AXIS":"6925.364","OBJECT_ID":"2021-005AK","ELEMENT_SET_NO":"999","BSTAR":"0.00085790000000","PERIAPSIS":"546.070","TLE_LINE2":"2 47382  53.0559 333.9150 0001674  66.0502 294.0662 15.06394983 55742","RA_OF_ASC_NODE":"333.9150","LAUNCH_DATE":"2021-01-20","ECCENTRICITY":"0.00016740","FILE":"3276875","NORAD_CAT_ID":"47382","CLASSIFICATION_TYPE":"U"},{"DECAY_DATE":null,"MEAN_ANOMALY":"303.3059","OBJECT_NAME":"STARLINK-2103","EPHEMERIS_TYPE":"0","MEAN_MOTION":"15.06387426","OBJECT_TYPE":"PAYLOAD","APOAPSIS":"548.555","PERIOD":"95.593","ARG_OF_PERICENTER":"56.8110","MEAN_MOTION_DOT":"0.00004300","INCLINATION":"53.0553","REV_AT_EPOCH":"5584","EPOCH":"2022-01-18T13:31:12.816192","TLE_LINE1":"1 47383U 21005AL  22018.56334278  .00004300  00000-0  30750-3 0  9999","RCS_SIZE":"LARGE","REF_FRAME":"TEME","TIME_SYSTEM":"UTC","MEAN_MOTION_DDOT":"0.0000000000000","CENTER_NAME":"EARTH","OBJECT_ID":"2021-005AL","ELEMENT_SET_NO":"999","BSTAR":"0.00030750000000","TLE_LINE2":"2 47383  53.0553 325.3313 0001881  56.8110 303.3059 15.06387426 55844","PERIAPSIS":"545.949","MEAN_ELEMENT_THEORY":"SGP4","SITE":"AFETR","GP_ID":"194125666","COUNTRY_CODE":"US","SEMIMAJOR_AXIS":"6925.387","FILE":"3276616","NORAD_CAT_ID":"47383","CLASSIFICATION_TYPE":"U","RA_OF_ASC_NODE":"325.3313","ECCENTRICITY":"0.00018810","LAUNCH_DATE":"2021-01-20"},{"RA_OF_ASC_NODE":"334.1013","ECCENTRICITY":"0.00014190","LAUNCH_DATE":"2021-01-20","NORAD_CAT_ID":"47384","CLASSIFICATION_TYPE":"U","FILE":"3276875","SEMIMAJOR_AXIS":"6925.437","GP_ID":"194155505","SITE":"AFETR","MEAN_ELEMENT_THEORY":"SGP4","COUNTRY_CODE":"US","BSTAR":"0.00011914000000","PERIAPSIS":"546.319","TLE_LINE2":"2 47384  53.0564 334.1013 0001419  54.5543 305.5578 15.06371121 55748","OBJECT_ID":"2021-005AM","ELEMENT_SET_NO":"999","RCS_SIZE":"LARGE","CENTER_NAME":"EARTH","MEAN_MOTION_DDOT":"0.0000000000000","TIME_SYSTEM":"UTC","REF_FRAME":"TEME","TLE_LINE1":"1 47384U 21005AM  22018.83887939  .00001492  00000-0  11914-3 0  9997","REV_AT_EPOCH":"5574","EPOCH":"2022-01-18T20:07:59.179296","ARG_OF_PERICENTER":"54.5543","PERIOD":"95.594","APOAPSIS":"548.285","INCLINATION":"53.0564","MEAN_MOTION_DOT":"0.00001492","MEAN_MOTION":"15.06371121","EPHEMERIS_TYPE":"0","OBJECT_NAME":"STARLINK-2104","OBJECT_TYPE":"PAYLOAD","DECAY_DATE":null,"MEAN_ANOMALY":"305.5578"},{"RA_OF_ASC_NODE":"334.0081","ECCENTRICITY":"0.00015330","LAUNCH_DATE":"2021-01-20","NORAD_CAT_ID":"47385","CLASSIFICATION_TYPE":"U","FILE":"3276875","SEMIMAJOR_AXIS":"6925.362","SITE":"AFETR","GP_ID":"194155239","MEAN_ELEMENT_THEORY":"SGP4","COUNTRY_CODE":"US","BSTAR":"0.00036652000000","PERIAPSIS":"546.165","TLE_LINE2":"2 47385  53.0552 334.0081 0001533  69.6175 290.4979 15.06395769 55746","OBJECT_ID":"2021-005AN","ELEMENT_SET_NO":"999","RCS_SIZE":"LARGE","MEAN_MOTION_DDOT":"0.0000000000000","TIME_SYSTEM":"UTC","CENTER_NAME":"EARTH","REF_FRAME":"TEME","TLE_LINE1":"1 47385U 21005AN  22018.85823447  .00005181  00000-0  36652-3 0  9999","REV_AT_EPOCH":"5574","EPOCH":"2022-01-18T20:35:51.458208","PERIOD":"95.592","ARG_OF_PERICENTER":"69.6175","APOAPSIS":"548.288","INCLINATION":"53.0552","MEAN_MOTION_DOT":"0.00005181","MEAN_MOTION":"15.06395769","EPHEMERIS_TYPE":"0","OBJECT_NAME":"STARLINK-2105","OBJECT_TYPE":"PAYLOAD","MEAN_ANOMALY":"290.4979","DECAY_DATE":null},{"MEAN_MOTION_DDOT":"0.0000000000000","CENTER_NAME":"EARTH","TIME_SYSTEM":"UTC","REF_FRAME":"TEME","RCS_SIZE":"LARGE","TLE_LINE1":"1 47386U 21005AP  22018.35695748  .00001320  00000-0  10758-3 0  9996","INCLINATION":"53.0563","MEAN_MOTION_DOT":"0.00001320","PERIOD":"95.593","ARG_OF_PERICENTER":"64.6610","APOAPSIS":"548.286","EPOCH":"2022-01-18T08:34:01.126272","REV_AT_EPOCH":"5567","DECAY_DATE":null,"MEAN_ANOMALY":"295.4530","OBJECT_TYPE":"PAYLOAD","MEAN_MOTION":"15.06378764","EPHEMERIS_TYPE":"0","OBJECT_NAME":"STARLINK-2106","ECCENTRICITY":"0.00014550","LAUNCH_DATE":"2021-01-20","RA_OF_ASC_NODE":"336.2634","FILE":"3276616","CLASSIFICATION_TYPE":"U","NORAD_CAT_ID":"47386","COUNTRY_CODE":"US","SITE":"AFETR","GP_ID":"194125416","MEAN_ELEMENT_THEORY":"SGP4","SEMIMAJOR_AXIS":"6925.414","ELEMENT_SET_NO":"999","OBJECT_ID":"2021-005AP","PERIAPSIS":"546.271","TLE_LINE2":"2 47386  53.0563 336.2634 0001455  64.6610 295.4530 15.06378764 55675","BSTAR":"0.00010758000000"},{"LAUNCH_DATE":"2021-01-20","ECCENTRICITY":"0.00014250","RA_OF_ASC_NODE":"4.8375","FILE":"3276875","CLASSIFICATION_TYPE":"U","NORAD_CAT_ID":"47387","COUNTRY_CODE":"US","SITE":"AFETR","GP_ID":"194154260","MEAN_ELEMENT_THEORY":"SGP4","SEMIMAJOR_AXIS":"6925.380","ELEMENT_SET_NO":"999","OBJECT_ID":"2021-005AQ","PERIAPSIS":"546.258","TLE_LINE2":"2 47387  53.0569   4.8375 0001425  62.5805 297.5329 15.06389634 55297","BSTAR":"-0.00009542900000","CENTER_NAME":"EARTH","MEAN_MOTION_DDOT":"0.0000000000000","TIME_SYSTEM":"UTC","REF_FRAME":"TEME","RCS_SIZE":"LARGE","TLE_LINE1":"1 47387U 21005AQ  22018.67487258 -.00001702  00000-0 -95429-4 0  9992","INCLINATION":"53.0569","MEAN_MOTION_DOT":"-0.00001702","PERIOD":"95.593","ARG_OF_PERICENTER":"62.5805","APOAPSIS":"548.232","EPOCH":"2022-01-18T16:11:48.990912","REV_AT_EPOCH":"5529","DECAY_DATE":null,"MEAN_ANOMALY":"297.5329","OBJECT_TYPE":"PAYLOAD","EPHEMERIS_TYPE":"0","MEAN_MOTION":"15.06389634","OBJECT_NAME":"STARLINK-2108"},{"RCS_SIZE":"LARGE","MEAN_MOTION_DDOT":"0.0000000000000","CENTER_NAME":"EARTH","TIME_SYSTEM":"UTC","REF_FRAME":"TEME","TLE_LINE1":"1 47388U 21005AR  22018.68962031 -.00002095  00000-0 -12181-3 0  9990","ARG_OF_PERICENTER":"56.7521","PERIOD":"95.593","APOAPSIS":"548.491","INCLINATION":"53.0571","MEAN_MOTION_DOT":"-0.00002095","REV_AT_EPOCH":"5529","EPOCH":"2022-01-18T16:33:03.194784","DECAY_DATE":null,"MEAN_ANOMALY":"303.3638","MEAN_MOTION":"15.06383184","EPHEMERIS_TYPE":"0","OBJECT_NAME":"STARLINK-2109","OBJECT_TYPE":"PAYLOAD","RA_OF_ASC_NODE":"4.7723","ECCENTRICITY":"0.00017700","LAUNCH_DATE":"2021-01-20","FILE":"3276875","NORAD_CAT_ID":"47388","CLASSIFICATION_TYPE":"U","GP_ID":"194155005","SITE":"AFETR","MEAN_ELEMENT_THEORY":"SGP4","COUNTRY_CODE":"US","SEMIMAJOR_AXIS":"6925.400","OBJECT_ID":"2021-005AR","ELEMENT_SET_NO":"999","BSTAR":"-0.00012181000000","PERIAPSIS":"546.039","TLE_LINE2":"2 47388  53.0571   4.7723 0001770  56.7521 303.3638 15.06383184 55293"},{"OBJECT_ID":"2021-005AS","ELEMENT_SET_NO":"999","BSTAR":"-0.00017646000000","TLE_LINE2":"2 47389  53.0581 345.1466 0001519  64.9028 295.2118 15.06382256 55566","PERIAPSIS":"546.216","MEAN_ELEMENT_THEORY":"SGP4","SITE":"AFETR","GP_ID":"194155740","COUNTRY_CODE":"US","SEMIMAJOR_AXIS":"6925.403","FILE":"3276875","NORAD_CAT_ID":"47389","CLASSIFICATION_TYPE":"U","RA_OF_ASC_NODE":"345.1466","LAUNCH_DATE":"2021-01-20","ECCENTRICITY":"0.00015190","DECAY_DATE":null,"MEAN_ANOMALY":"295.2118","OBJECT_NAME":"STARLINK-2110","EPHEMERIS_TYPE":"0","MEAN_MOTION":"15.06382256","OBJECT_TYPE":"PAYLOAD","APOAPSIS":"548.320","ARG_OF_PERICENTER":"64.9028","PERIOD":"95.593","MEAN_MOTION_DOT":"-0.00002908","INCLINATION":"53.0581","REV_AT_EPOCH":"5556","EPOCH":"2022-01-18T14:28:19.357248","TLE_LINE1":"1 47389U 21005AS  22018.60300182 -.00002908  00000-0 -17646-3 0  9990","RCS_SIZE":"LARGE","REF_FRAME":"TEME","CENTER_NAME":"EARTH","MEAN_MOTION_DDOT":"0.0000000000000","TIME_SYSTEM":"UTC"},{"COUNTRY_CODE":"US","MEAN_ELEMENT_THEORY":"SGP4","GP_ID":"194154510","SITE":"AFETR","SEMIMAJOR_AXIS":"6925.416","ELEMENT_SET_NO":"999","OBJECT_ID":"2021-005AT","TLE_LINE2":"2 47390  53.0565   4.8721 0001752  59.9433 300.1730 15.06377860 55297","PERIAPSIS":"546.068","BSTAR":"-0.00021801000000","LAUNCH_DATE":"2021-01-20","ECCENTRICITY":"0.00017520","RA_OF_ASC_NODE":"4.8721","FILE":"3276875","CLASSIFICATION_TYPE":"U","NORAD_CAT_ID":"47390","MEAN_MOTION_DOT":"-0.00003525","INCLINATION":"53.0565","APOAPSIS":"548.495","ARG_OF_PERICENTER":"59.9433","PERIOD":"95.594","EPOCH":"2022-01-18T15:55:53.798304","REV_AT_EPOCH":"5529","MEAN_ANOMALY":"300.1730","DECAY_DATE":null,"OBJECT_TYPE":"PAYLOAD","OBJECT_NAME":"STARLINK-2111","EPHEMERIS_TYPE":"0","MEAN_MOTION":"15.06377860","REF_FRAME":"TEME","MEAN_MOTION_DDOT":"0.0000000000000","CENTER_NAME":"EARTH","TIME_SYSTEM":"UTC","RCS_SIZE":"LARGE","TLE_LINE1":"1 47390U 21005AT  22018.66381711 -.00003525  00000-0 -21801-3 0  9999"},{"CLASSIFICATION_TYPE":"U","NORAD_CAT_ID":"47391","FILE":"3276875","LAUNCH_DATE":"2021-01-20","ECCENTRICITY":"0.00019350","RA_OF_ASC_NODE":"335.1222","TLE_LINE2":"2 47391  53.0550 335.1222 0001935  59.2727 300.8452 15.06391637 55702","PERIAPSIS":"545.899","BSTAR":"0.00021324000000","ELEMENT_SET_NO":"999","OBJECT_ID":"2021-005AU","SEMIMAJOR_AXIS":"6925.374","COUNTRY_CODE":"US","MEAN_ELEMENT_THEORY":"SGP4","SITE":"AFETR","GP_ID":"194154761","TLE_LINE1":"1 47391U 21005AU  22018.60665229  .00002895  00000-0  21324-3 0  9990","REF_FRAME":"TEME","MEAN_MOTION_DDOT":"0.0000000000000","CENTER_NAME":"EARTH","TIME_SYSTEM":"UTC","RCS_SIZE":"LARGE","OBJECT_TYPE":"PAYLOAD","OBJECT_NAME":"STARLINK-2112","EPHEMERIS_TYPE":"0","MEAN_MOTION":"15.06391637","MEAN_ANOMALY":"300.8452","DECAY_DATE":null,"EPOCH":"2022-01-18T14:33:34.757856","REV_AT_EPOCH":"5570","MEAN_MOTION_DOT":"0.00002895","INCLINATION":"53.0550","APOAPSIS":"548.579","ARG_OF_PERICENTER":"59.2727","PERIOD":"95.593"}];
